[Satellite]
VERSION=1.1
NAME=ONEWEB-0507
NICKNAME=ONEWEB-0507
TLE1=1 54125U 22138N   22321.58334491 -.00868263  00000+0 -12182+0 0  9997
TLE2=2 54125  87.4555 208.5478 0010227 185.5976  59.9836 14.80287911  1305
STATUS=0
